STARLINK-24             
1 44238U 19029D   22008.61417752  .00006184  00000+0  30024-3 0  9997
2 44238  52.9966 130.1110 0001718 114.3776 245.7398 15.19747168143839
STARLINK-61             
1 44249U 19029Q   22008.63820205  .00017077  00000+0  65641-3 0  9998
2 44249  52.9797  96.1743 0006009   8.0680 352.0412 15.26528136145007
STARLINK-71             
1 44252U 19029T   22008.55971622  .00010562  00000+0  46709-3 0  9999
2 44252  53.0012 129.0594 0002130 162.5535 197.5533 15.22234826144482
STARLINK-43             
1 44257U 19029Y   22009.11848816  .00266953  00000+0  13562-2 0  9992
2 44257  52.9905 325.3238 0008507 115.3254 244.8649 15.80149995147933
STARLINK-80             
1 44282U 19029AZ  22009.10035756  .00036241  00000+0  86438-3 0  9998
2 44282  53.0178  32.3251 0001404 151.1686 208.9395 15.41235258147003
STARLINK-1007           
1 44713U 19074A   22008.72328600  .00001019  00000+0  87280-4 0  9999
2 44713  53.0497 174.5096 0002263  91.1034 269.0214 15.06403993119502
STARLINK-1008           
1 44714U 19074B   22009.16654543  .00000681  00000+0  64629-4 0  9993
2 44714  53.0543 172.5191 0002113  87.8308 272.2923 15.06405211119743
STARLINK-1009           
1 44715U 19074C   22008.82374677  .00000529  00000+0  54457-4 0  9992
2 44715  53.0538 174.0520 0002036  96.2444 263.8777 15.06384483119515
STARLINK-1010           
1 44716U 19074D   22009.17390527 -.00000809  00000+0 -35383-4 0  9994
2 44716  53.0553 172.4849 0001999  97.6111 262.5105 15.06398665119723
STARLINK-1011           
1 44717U 19074E   22008.77396814  .00000267  00000+0  36863-4 0  9995
2 44717  53.0529 194.2655 0002236  79.5737 280.5504 15.06407386119232
STARLINK-1012           
1 44718U 19074F   22008.74636030  .00000829  00000+0  74563-4 0  9993
2 44718  53.0539 174.3995 0002271  87.2759 272.8490 15.06393366119509
STARLINK-1013           
1 44719U 19074G   22009.15178953 -.00000792  00000+0 -34298-4 0  9997
2 44719  53.0548 172.5744 0001879  83.7758 276.3445 15.06391984119733
STARLINK-1014           
1 44720U 19074H   22008.77213898 -.00001348  00000+0 -71599-4 0  9997
2 44720  53.0529 174.2806 0002192  87.0914 273.0326 15.06393053119519
STARLINK-1015           
1 44721U 19074J   22008.82743101 -.00001075  00000+0 -53258-4 0  9998
2 44721  53.0551 174.0209 0002200  85.5660 274.5580 15.06392071119518
STARLINK-1016           
1 44722U 19074K   22009.16285817  .00000951  00000+0  82767-4 0  9999
2 44722  53.0538 172.5271 0002796  89.7027 270.4282 15.06404764119741
STARLINK-1017           
1 44723U 19074L   22008.84585289  .00000537  00000+0  54942-4 0  9994
2 44723  53.0551 173.9638 0002131  89.9501 270.1733 15.06405935119526
STARLINK-1019           
1 44724U 19074M   22008.87534054  .00000877  00000+0  77757-4 0  9998
2 44724  53.0539 173.8222 0001964  86.3013 273.8201 15.06404422119523
STARLINK-1020           
1 44725U 19074N   22008.81454111  .00000399  00000+0  45693-4 0  9991
2 44725  53.0531 194.0852 0001944  77.5474 282.5733 15.06391188119230
STARLINK-1021           
1 44726U 19074P   22009.13704402 -.00001150  00000+0 -58297-4 0  9991
2 44726  53.0540 172.6562 0001754  93.4722 266.6467 15.06394491119735
STARLINK-1022           
1 44727U 19074Q   22008.84124353  .00000372  00000+0  43928-4 0  9998
2 44727  53.0593 213.9615 0002189  69.4223 290.7001 15.06390386118970
STARLINK-1024           
1 44729U 19074S   22008.81489282  .00001101  00000+0  87412-4 0  9999
2 44729  53.0007 189.6814 0003094 108.2843 251.8483 15.08794538119273
STARLINK-1026           
1 44731U 19074U   22009.14810474 -.00001214  00000+0 -62581-4 0  9997
2 44731  53.0526 172.5912 0002355  85.8472 274.2786 15.06392815119735
STARLINK-1027           
1 44732U 19074V   22008.80348014  .00000477  00000+0  50958-4 0  9999
2 44732  53.0527 194.1427 0002034  78.8773 281.2445 15.06394004119235
STARLINK-1028           
1 44733U 19074W   22008.73529995  .00000507  00000+0  52956-4 0  9995
2 44733  53.0542 174.4557 0002301  84.3070 275.8181 15.06390871119501
STARLINK-1029           
1 44734U 19074X   22009.08175460 -.00000496  00000+0 -14431-4 0  9994
2 44734  53.0567  92.8809 0001269  88.4672 271.6462 15.06391740120826
STARLINK-1030           
1 44735U 19074Y   22008.81085415  .00000401  00000+0  45820-4 0  9995
2 44735  53.0519 194.1143 0002208  79.4301 280.6937 15.06392652119237
STARLINK-1031           
1 44736U 19074Z   22009.22367167  .00000703  00000+0  66117-4 0  9996
2 44736  53.0536 192.2638 0001965  79.7139 280.4071 15.06397141119477
STARLINK-1032           
1 44737U 19074AA  22008.77028462  .00000540  00000+0  55160-4 0  9993
2 44737  53.0535 194.3003 0002182  72.0412 288.0814 15.06405932119239
STARLINK-1033           
1 44738U 19074AB  22008.82191230  .00000514  00000+0  53425-4 0  9997
2 44738  53.0550 194.0482 0002032  82.1320 277.9899 15.06393612119230
STARLINK-1052           
1 44739U 19074AC  22009.18189643  .00005400  00000+0  35757-3 0  9999
2 44739  52.9973 188.4640 0002059 114.1534 245.9671 15.08790216119486
STARLINK-1035           
1 44740U 19074AD  22008.83295822  .00000424  00000+0  47378-4 0  9993
2 44740  53.0535 194.0086 0001836  79.1705 280.9490 15.06399572119243
STARLINK-1036           
1 44741U 19074AE  22008.77766944  .00001162  00000+0  96899-4 0  9997
2 44741  53.0530 194.2559 0002163  79.2073 280.9159 15.06398925119231
STARLINK-1037           
1 44742U 19074AF  22009.16958097  .00008408  00000+0  52946-3 0  9998
2 44742  52.9961 184.4458 0001662  84.0774 276.0405 15.09952188119546
STARLINK-1038           
1 44743U 19074AG  22008.82744022  .00000621  00000+0  60641-4 0  9993
2 44743  53.0520 214.0281 0001965  71.4598 288.6604 15.06381065119057
STARLINK-1039           
1 44744U 19074AH  22008.83849716  .00001253  00000+0  10304-3 0  9993
2 44744  53.0532 213.9855 0002136  68.7259 291.3958 15.06394357118960
STARLINK-1041           
1 44746U 19074AK  22009.02279474  .00002217  00000+0  16771-3 0  9990
2 44746  53.0543 213.1518 0002036  74.5735 285.5479 15.06396512119166
STARLINK-1042           
1 44747U 19074AL  22008.85322536  .00000821  00000+0  74023-4 0  9993
2 44747  53.0544 213.9136 0002080  68.6766 291.4445 15.06401362118976
STARLINK-1043           
1 44748U 19074AM  22008.88271025  .00000375  00000+0  44069-4 0  9994
2 44748  53.0532 213.7819 0002462  71.5886 288.5370 15.06399906119144
STARLINK-1046           
1 44751U 19074AQ  22008.83112588  .00000420  00000+0  47091-4 0  9990
2 44751  53.0531 214.0274 0002097  69.8655 290.2559 15.06390005118963
STARLINK-1047           
1 44752U 19074AR  22008.78505468  .00000444  00000+0  48720-4 0  9994
2 44752  53.0547 194.2130 0002287  75.4801 284.6442 15.06390806119236
STARLINK-1048           
1 44753U 19074AS  22008.72423488  .00000827  00000+0  74439-4 0  9991
2 44753  53.0515 174.5004 0002016  82.7661 277.3557 15.06393009119502
STARLINK-1049           
1 44754U 19074AT  22008.72790146  .00000606  00000+0  59584-4 0  9999
2 44754  53.0542 174.4886 0002216  91.5161 268.6082 15.06406563119501
STARLINK-1050           
1 44755U 19074AU  22008.84491021  .00001355  00000+0  10989-3 0  9990
2 44755  53.0496 213.9679 0002367  68.4837 291.6404 15.06403549119515
STARLINK-1034           
1 44757U 19074AW  22008.79609625 -.00001018  00000+0 -49445-4 0  9995
2 44757  53.0550 194.1739 0002406  80.3871 279.7389 15.06391927119234
STARLINK-1053           
1 44758U 19074AX  22008.87071502 -.00001386  00000+0 -74196-4 0  9991
2 44758  53.0547 213.8368 0002189  67.9067 292.2154 15.06388315118971
STARLINK-1054           
1 44759U 19074AY  22008.99332596  .00000999  00000+0  85955-4 0  9990
2 44759  53.0542 213.3031 0002128  76.0297 284.0928 15.06400541119164
STARLINK-1055           
1 44760U 19074AZ  22008.84586107  .00001074  00000+0  91016-4 0  9995
2 44760  53.0541 213.9448 0002131  73.7021 286.4202 15.06399349118978
STARLINK-1056           
1 44761U 19074BA  22008.85691148  .00001391  00000+0  11227-3 0  9996
2 44761  53.0532 213.9035 0002176  66.1162 294.0055 15.06403892118972
STARLINK-1057           
1 44762U 19074BB  22008.79241286 -.00001125  00000+0 -56637-4 0  9996
2 44762  53.0526 194.1850 0002398  76.6732 283.4524 15.06392162119236
STARLINK-1058           
1 44763U 19074BC  22008.87904471  .00000403  00000+0  45979-4 0  9991
2 44763  53.0540 213.8132 0001995  71.9302 288.1904 15.06380435118972
STARLINK-1059           
1 44764U 19074BD  22008.78873831  .00000328  00000+0  40954-4 0  9991
2 44764  53.0534 194.2130 0001828  74.9780 285.1411 15.06386918119236
STARLINK-1060           
1 44765U 19074BE  22008.80716406  .00000344  00000+0  42039-4 0  9993
2 44765  53.0532 194.1188 0002011  78.4072 281.7142 15.06386793119239
STARLINK-1061           
1 44766U 19074BF  22009.07070813  .00001148  00000+0  95969-4 0  9992
2 44766  53.0548 212.9305 0001903  80.7314 279.3890 15.06395922119171
STARLINK-1062           
1 44767U 19074BG  22008.86428542  .00000349  00000+0  42336-4 0  9997
2 44767  53.0528 213.8631 0002182  66.6811 293.4408 15.06396147118976
STARLINK-1063           
1 44768U 19074BH  22008.88639317  .00000409  00000+0  46342-4 0  9992
2 44768  53.0526 213.7677 0002189  66.8467 293.2753 15.06401733118980
STARLINK-1064           
1 44769U 19074BJ  22008.72980185  .00720388  00000+0  32009-2 0  9996
2 44769  53.0535 165.3059 0002556  31.9216 328.1960 15.81913416119719
STARLINK-1065           
1 44770U 19074BK  22009.00774655  .00005614  00000+0  36019-3 0  9997
2 44770  53.0009 205.5897 0001346  94.3148 265.7996 15.09887994119241
STARLINK-1067           
1 44771U 19074BL  22008.87535668 -.00000589  00000+0 -20606-4 0  9995
2 44771  53.0530 213.8185 0002082  70.2430 289.8783 15.06387509119142
STARLINK-1068           
1 44772U 19074BM  22008.79978672  .00000608  00000+0  59706-4 0  9996
2 44772  53.0537 194.1633 0002198  82.3321 277.7918 15.06397511119230
STARLINK-1073           
1 44914U 20001A   22009.21444902  .00001421  00000+0  11431-3 0  9994
2 44914  53.0550 332.2986 0001659  67.5939 292.5226 15.06397276110674
